#aV2014  1  7  0  0  0.00000000     288 DD+AD WGS84 FIT  NGA
## 1774 172800.00000000   300.00000000 56664 0.0000000000000
+   31     1  2  3  4  5  6  7  8  9 10 11 12 13 14 15 16 17
+         18 19 20 21 22 23 24 25 26 27 28 29 31 32  0  0  0
+          0  0  0  0  0  0  0  0  0  0  0  0  0  0  0  0  0
+          0  0  0  0  0  0  0  0  0  0  0  0  0  0  0  0  0
+          0  0  0  0  0  0  0  0  0  0  0  0  0  0  0  0  0
++         2  2  2  2  2  2  2  2  2  2  2  2  2  2  2  2  2
++         2  2  2  2  2  2  2  2  2  2  2  2  2  2  0  0  0
++         0  0  0  0  0  0  0  0  0  0  0  0  0  0  0  0  0
++         0  0  0  0  0  0  0  0  0  0  0  0  0  0  0  0  0
++         0  0  0  0  0  0  0  0  0  0  0  0  0  0  0  0  0
%c cc cc ccc ccc cccc cccc cccc cccc ccccc ccccc ccccc ccccc
%c cc cc ccc ccc cccc cccc cccc cccc ccccc ccccc ccccc ccccc
%f  0.0000000  0.000000000  0.00000000000  0.000000000000000
%f  0.0000000  0.000000000  0.00000000000  0.000000000000000
%i    0    0    0    0      0      0      0      0         0
%i    0    0    0    0      0      0      0      0         0
/*      NGA, ST. LOUIS,MO.                                  
/*   EPHEMERIS COMPUTED FROM  1 DAYS OF DATA                
/*   EPOCHA SMOOTHER                                       
/* CCCCCCCCCCCCCCCCCCCCCCCCCCCCCCCCCCCCCCCCCCCCCCCCCCCCCCCCC
*  2014  1  7  9  5  0.00000000
P  1  13439.212394 -11366.308523  19821.243733     98.848985                    
V  1   2181.748259  25215.803091  13070.737383      0.025739                    
P  2 -14052.930128 -13557.489094 -17974.929565    471.348697                    
V  2    177.098196 -23274.258392  16674.684692      0.021946                    
P  3  25436.405361   7712.673300   1431.668266    309.201912                    
V  3   1187.985062   4055.201021 -31043.713786      0.048846                    
P  4  -7025.258256 -24302.692414  -7973.467222      4.768039                    
V  4   2947.033409  -9969.697389  29152.549424      0.001808                    
P  5 -19913.971976  -2258.831253 -17549.943000   -393.147831                    
V  5  17733.401980 -13445.335326 -18277.763734      0.011973                    
P  6  22765.490140  13415.251174  -4269.577100    225.662136                    
V  6  -6171.208687    520.182018 -30496.177321      0.156533                    
P  7   6355.135770 -23556.497992 -10022.703664    300.043581                    
V  7   2630.182309  12866.199423 -28688.280856      0.041948                    
P  8    946.206200 -26163.916915   1664.457014     11.114120                    
V  8   2289.603026  -1794.189540 -32868.441797      0.002496                    
P  9  -1548.470197 -26401.125304    715.090734    296.236602                    
V  9   2191.895914  -1642.350411 -32328.668247      0.027567                    
P 10  -3867.588650 -15779.568894 -21283.528161   -109.015617                    
V 10  22925.997239 -13117.801412   6073.079324     -0.015360                    
P 11  16265.254067  -3322.800408  20268.376060   -453.483876                    
V 11   8978.818108  25618.195329  -2711.109903     -0.032477                    
P 12 -23768.811054  10910.256226   3865.825280    178.726588                    
V 12   3216.323852  -4381.505856  31950.631146      0.023297                    
P 13   8743.786273 -12041.048745 -22135.354780     42.316633                    
V 13  23097.807134  15335.064889    647.727653     -0.038089                    
P 14   9165.540146  18947.818665  16498.295745    205.419611                    
V 14 -18171.389228  -9533.800825  21183.235827     -0.012346                    
P 15 -23587.444317  -1287.484904  12375.024399   -156.323125                    
V 15 -13007.711360  -9239.769400 -25375.771301     -0.020246                    
P 16  19828.614404   2332.898360 -17723.087960   -236.243905                    
V 16 -18936.850176  11721.566759 -19340.331911      0.013221                    
P 17 -10030.631760 -18760.122530  16294.561103    -57.029356                    
V 17  18194.002980   8749.132597  21360.219526     -0.034411                    
P 18 -12282.259922  19624.272930  13140.702233    294.726764                    
V 18 -15389.605729   6061.362526 -24566.870712      0.021867                    
P 19  23142.587713   4732.932827  12443.433115   -430.595459                    
V 19  12223.762178  10238.213201 -25945.122795     -0.025253                    
P 20  22077.594108 -14604.826711   1385.192736    150.936991                    
V 20    691.242821   4376.954964  30966.078120      0.031521                    
P 21  -4499.763262  24598.376580  -7576.004119   -336.837485                    
V 21  -4491.726230 -10404.495274 -29324.855907     -0.020861                    
P 22   -555.957109  17997.816706  19677.875838    205.405340                    
V 22 -21698.285074  12006.387341 -11865.422037      0.023767                    
P 23  18832.301721  -4579.023138 -18238.630444     14.792979                    
V 23  19779.493404  12269.440967  16855.329263     -0.032997                    
P 24 -14638.357880   6249.530058  21244.682450    -21.135603                    
V 24  -2027.593081 -26945.760972   6605.764724     -0.005754                    
P 25 -17848.958365  17888.889826  -8037.326434      7.551393                    
V 25  -9779.824389   3539.969441  29914.303124      0.023852                    
P 26 -22905.698464 -13575.158049   1710.515873    200.817141                    
V 26  -1323.996210  -3351.463773 -31804.471783     -0.105048                    
P 27  23473.211920  12456.829135   -321.025998    -13.070981                    
V 27  -1625.394541   2254.213503 -31767.441756     -0.022227                    
P 28   4619.996724 -17607.107644  19891.230992    322.697574                    
V 28  21393.349774 -10787.470771 -15129.813232      0.029766                    
P 29 -11760.855018  10204.080788 -21470.807396    501.400961                    
V 29 -23293.892100 -14329.291316   5975.836170      0.030264                    
P 31   7430.409019  22946.117227 -10600.795768    332.084847                    
V 31  -2036.027519  13817.598512  28336.581360      0.004221                    
P 32  23682.918472  -3410.722025  10993.533714   -505.399183                    
V 32 -11019.157771   9302.133924  27347.061427      0.055785                    
EOF
